{"type": "FeatureCollection", "features": [{"type": "Feature", "properties": {"GID_2": "YEM.12.1_1", "GID_0": "YEM", "COUNTRY": "Yemen", "GID_1": "YEM.12_1", "NAME_1": "Hadramawt", "NL_NAME_1": "\u062d\u0636\u0631\u0645\u0648\u062a", "NAME_2": "AdDis", "VARNAME_2": "NA", "NL_NAME_2": "\u0627\u0644\u062f\u064a\u0633", "TYPE_2": "Muderiah", "ENGTYPE_2": "District", "CC_2": "1914", "HASC_2": "NA"}, "geometry": {"type": "MultiPolygon", "coordinates": [[[[50.2422, 14.8976], [50.1882, 14.8657], [50.1807, 14.8585], [50.181, 14.8526], [50.1826, 14.8507], [50.179, 14.8451], [50.1688, 14.8443], [50.1626, 14.8415], [50.1524, 14.8424], [50.1488, 14.8413], [50.1396, 14.8454], [50.1365, 14.8485], [50.1287, 14.8485], [50.1285, 14.8465], [50.1246, 14.8457], [50.1207, 14.8485], [50.1085, 14.8499], [50.0876, 14.8421], [50.0571, 14.8276], [50.046, 14.8268], [50.0374, 14.8224], [50.0251, 14.8218], [50.0235, 14.8193], [50.0215, 14.8193], [50.0213, 14.8215], [50.0257, 14.8246], [50.0226, 14.8282], [50.0235, 14.834], [50.0185, 14.8374], [50.019, 14.8393], [50.0112, 14.8504], [50.0024, 14.8529], [49.9896, 14.8515], [49.9854, 14.8529], [49.9668, 14.8488], [49.9618, 14.8462], [49.9562, 14.8479], [49.9515, 14.846], [49.9415, 14.8507], [49.9343, 14.8504], [49.9162, 14.8426], [49.8988, 14.8374], [49.8507, 14.8137], [49.8418, 14.8453], [49.8247, 14.8488], [49.8042, 14.8446], [49.7871, 14.8495], [49.7892, 14.8754], [49.81, 14.8933], [49.8391, 14.9308], [49.8442, 15.019], [49.8432, 15.0434], [49.8081, 15.0869], [49.8087, 15.1143], [49.8221, 15.1536], [49.8352, 15.1747], [49.8427, 15.2294], [49.7954, 15.3585], [49.8391, 15.3772], [49.8525, 15.3807], [49.8851, 15.3308], [49.9354, 15.2876], [50.0109, 15.2265], [50.066, 15.1686], [50.0698, 15.112], [50.1205, 15.0809], [50.1505, 15.0436], [50.1567, 15.0168], [50.1762, 14.973], [50.203, 14.9457], [50.2422, 14.8976]]]]}}, {"type": "Feature", "properties": {"GID_2": "YEM.12.2_1", "GID_0": "YEM", "COUNTRY": "Yemen", "GID_1": "YEM.12_1", "NAME_1": "Hadramawt", "NL_NAME_1": "\u062d\u0636\u0631\u0645\u0648\u062a", "NAME_2": "AdhDhlia'ah", "VARNAME_2": "NA", "NL_NAME_2": "\u0627\u0644\u0636\u0644\u064a\u0639\u0647", "TYPE_2": "Muderiah", "ENGTYPE_2": "District", "CC_2": "1922", "HASC_2": "NA"}, "geometry": {"type": "MultiPolygon", "coordinates": [[[[47.9896, 15.1934], [48.0366, 15.1865], [48.0549, 15.1696], [48.0656, 15.1252], [48.0682, 15.1058], [48.0752, 15.0988], [48.084, 15.1125], [48.0884, 15.1235], [48.0998, 15.1234], [48.128, 15.1078], [48.1365, 15.1008], [48.1278, 15.094], [48.132, 15.087], [48.1329, 15.0538], [48.137, 15.0413], [48.1768, 15.0352], [48.2076, 15.0016], [48.2355, 14.9482], [48.2264, 14.8834], [48.2192, 14.8656], [48.2015, 14.8359], [48.1801, 14.8194], [48.1549, 14.8122], [48.1084, 14.7904], [48.0947, 14.77], [48.0942, 14.7333], [47.986, 14.7562], [47.8529, 14.8108], [47.7827, 14.8533], [47.7561, 14.8594], [47.7066, 14.8891], [47.621, 14.9548], [47.6466, 14.9856], [47.6651, 15.0527], [47.6612, 15.0698], [47.6492, 15.0871], [47.6196, 15.1033], [47.6075, 15.1153], [47.5872, 15.1261], [47.5696, 15.1276], [47.5589, 15.1383], [47.5631, 15.1514], [47.5796, 15.1658], [47.5921, 15.1894], [47.6088, 15.2154], [47.6114, 15.2116], [47.6318, 15.214], [47.6537, 15.2322], [47.6854, 15.2621], [47.6931, 15.2734], [47.7143, 15.2946], [47.74, 15.2826], [47.752, 15.2692], [47.7658, 15.2499], [47.7845, 15.1898], [47.8041, 15.1605], [47.8253, 15.1491], [47.8524, 15.1513], [47.8855, 15.1774], [47.9426, 15.1891], [47.9896, 15.1934]]]]}}, {"type": "Feature", "properties": {"GID_2": "YEM.12.3_1", "GID_0": "YEM", "COUNTRY": "Yemen", "GID_1": "YEM.12_1", "NAME_1": "Hadramawt", "NL_NAME_1": "\u062d\u0636\u0631\u0645\u0648\u062a", "NAME_2": "AlAbr", "VARNAME_2": "NA", "NL_NAME_2": "\u0627\u0644\u0639\u0628\u0631", "TYPE_2": "Muderiah", "ENGTYPE_2": "District", "CC_2": "1906", "HASC_2": "NA"}, "geometry": {"type": "MultiPolygon", "coordinates": [[[[47.8344, 15.9826], [47.8617, 15.9798], [47.9692, 15.9783], [47.979, 15.9734], [48.1156, 15.8831], [48.1439, 15.8501], [48.1516, 15.8251], [48.1262, 15.7986], [48.0984, 15.7859], [48.0464, 15.7874], [48.0029, 15.7706], [47.9324, 15.7385], [47.8689, 15.712], [47.8268, 15.7113], [47.8209, 15.7188], [47.8062, 15.7225], [47.7474, 15.7179], [47.6975, 15.7185], [47.6991, 15.7196], [47.6017, 15.7149], [47.371, 15.6874], [47.0532, 15.6725], [46.306, 15.6062], [46.4864, 15.8018], [46.8108, 16.1619], [46.9483, 16.109], [46.9483, 16.1071], [47.0513, 16.0399], [47.1243, 16.085], [47.1756, 16.1651], [47.2146, 16.1909], [47.2789, 16.2146], [47.3662, 16.2211], [47.4863, 16.2122], [47.5435, 16.2036], [47.5417, 16.201], [47.557, 16.1289], [47.6739, 16.0194], [47.8344, 15.9826]]]]}}, {"type": "Feature", "properties": {"GID_2": "YEM.12.4_1", "GID_0": "YEM", "COUNTRY": "Yemen", "GID_1": "YEM.12_1", "NAME_1": "Hadramawt", "NL_NAME_1": "\u062d\u0636\u0631\u0645\u0648\u062a", "NAME_2": "AlMukalla", "VARNAME_2": "NA", "NL_NAME_2": "\u0627\u0644\u0645\u0643\u0644\u0627", "TYPE_2": "Muderiah", "ENGTYPE_2": "District", "CC_2": "1930", "HASC_2": "NA"}, "geometry": {"type": "MultiPolygon", "coordinates": [[[[49.3092, 14.6678], [49.2279, 14.6496], [49.2164, 14.6389], [49.1887, 14.6032], [49.1561, 14.6016], [49.095, 14.5895], [49.0221, 14.5458], [48.9957, 14.4872], [48.9733, 14.4974], [48.9704, 14.5079], [48.9498, 14.5244], [48.9215, 14.5385], [48.878, 14.5132], [48.8745, 14.5144], [48.8686, 14.5115], [48.8539, 14.5138], [48.8327, 14.535], [48.8169, 14.5644], [48.7728, 14.6167], [48.7272, 14.6544], [48.6813, 14.6508], [48.6424, 14.635], [48.6293, 14.6519], [48.5306, 14.7475], [48.5733, 14.8268], [48.583, 14.9044], [48.5815, 14.9711], [48.6345, 14.9629], [48.6641, 14.9442], [48.6652, 14.9451], [48.697, 14.9312], [48.7154, 14.8961], [48.7295, 14.8632], [48.7475, 14.8501], [48.8049, 14.8398], [48.8355, 14.8226], [48.9893, 14.79], [49.0435, 14.7557], [49.1498, 14.7538], [49.1803, 14.7332], [49.2315, 14.7207], [49.3018, 14.6753], [49.3048, 14.6673], [49.3092, 14.6678]]]]}}, {"type": "Feature", "properties": {"GID_2": "YEM.12.5_1", "GID_0": "YEM", "COUNTRY": "Yemen", "GID_1": "YEM.12_1", "NAME_1": "Hadramawt", "NL_NAME_1": "\u062d\u0636\u0631\u0645\u0648\u062a", "NAME_2": "AlMukallaCity", "VARNAME_2": "NA", "NL_NAME_2": "\u0645\u062f\u064a\u0646\u0629\u0627\u0644\u0645\u0643\u0644\u0627", "TYPE_2": "Muderiah", "ENGTYPE_2": "District", "CC_2": "1929", "HASC_2": "NA"}, "geometry": {"type": "MultiPolygon", "coordinates": [[[[48.9957, 14.4872], [49.0221, 14.5458], [49.095, 14.5895], [49.1561, 14.6016], [49.1887, 14.6032], [49.2164, 14.6389], [49.2279, 14.6496], [49.3092, 14.6678], [49.3628, 14.6742], [49.3828, 14.6738], [49.3939, 14.6568], [49.3654, 14.6487], [49.3332, 14.6346], [49.2468, 14.5876], [49.2193, 14.569], [49.1785, 14.5482], [49.1726, 14.5424], [49.1682, 14.5313], [49.1668, 14.5212], [49.1712, 14.5185], [49.1693, 14.5146], [49.1718, 14.5124], [49.1699, 14.5082], [49.161, 14.5115], [49.1576, 14.5107], [49.1543, 14.5149], [49.1535, 14.5188], [49.1496, 14.5188], [49.1474, 14.5207], [49.1504, 14.5218], [49.1499, 14.524], [49.1482, 14.5235], [49.1482, 14.526], [49.1435, 14.5279], [49.1399, 14.5268], [49.1379, 14.5238], [49.1338, 14.5296], [49.1126, 14.5315], [49.0985, 14.5251], [49.0838, 14.5143], [49.0607, 14.4924], [49.0224, 14.4443], [49.0146, 14.4315], [49.0151, 14.4238], [49.0121, 14.4229], [49.0146, 14.4226], [49.0135, 14.4196], [49.0068, 14.4168], [49.0032, 14.4084], [48.9995, 14.411], [48.9885, 14.4322], [48.9932, 14.4817], [48.9957, 14.4872]]]]}}, {"type": "Feature", "properties": {"GID_2": "YEM.12.6_1", "GID_0": "YEM", "COUNTRY": "Yemen", "GID_1": "YEM.12_1", "NAME_1": "Hadramawt", "NL_NAME_1": "\u062d\u0636\u0631\u0645\u0648\u062a", "NAME_2": "AlQaf", "VARNAME_2": "NA", "NL_NAME_2": "\u0627\u0644\u0642\u0641", "TYPE_2": "Muderiah", "ENGTYPE_2": "District", "CC_2": "1903", "HASC_2": "NA"}, "geometry": {"type": "MultiPolygon", "coordinates": [[[[48.5957, 18.3651], [49.1167, 18.6167], [49.7343, 18.6803], [49.7253, 18.3994], [49.7258, 18.3667], [49.7056, 17.6168], [49.6762, 17.424], [49.6428, 17.4051], [49.5831, 17.318], [49.5776, 17.0971], [49.5517, 16.9761], [49.4098, 16.8023], [49.2206, 16.552], [49.1472, 16.4705], [49.1071, 16.4646], [49.0822, 16.4667], [49.067, 16.4701], [49.0477, 16.4689], [49.0209, 16.4637], [48.9531, 16.4366], [48.8849, 16.3605], [48.8564, 16.3143], [48.8006, 16.2886], [48.7586, 16.2626], [48.7579, 16.2288], [48.7404, 16.2162], [48.6604, 16.1876], [48.5692, 16.1772], [48.4469, 16.2116], [48.3442, 16.2341], [48.3656, 16.3351], [48.3421, 16.3916], [48.2865, 16.4678], [48.1467, 16.6286], [48.2901, 16.7214], [48.4451, 16.918], [48.5177, 17.0696], [48.556, 17.1739], [48.5658, 17.1799], [48.5957, 18.3651]]]]}}, {"type": "Feature", "properties": {"GID_2": "YEM.12.7_1", "GID_0": "YEM", "COUNTRY": "Yemen", "GID_1": "YEM.12_1", "NAME_1": "Hadramawt", "NL_NAME_1": "\u062d\u0636\u0631\u0645\u0648\u062a", "NAME_2": "AlQatn", "VARNAME_2": "NA", "NL_NAME_2": "\u0627\u0644\u0642\u0637\u0646", "TYPE_2": "Muderiah", "ENGTYPE_2": "District", "CC_2": "1907", "HASC_2": "NA"}, "geometry": {"type": "MultiPolygon", "coordinates": [[[[48.1516, 15.8251], [48.1439, 15.8501], [48.1156, 15.8831], [47.979, 15.9734], [47.9692, 15.9783], [47.8617, 15.9798], [47.8344, 15.9826], [47.838, 15.9967], [47.8897, 16.0574], [48.0526, 16.1592], [48.2285, 16.2216], [48.3442, 16.2341], [48.4469, 16.2116], [48.5692, 16.1772], [48.5731, 16.1323], [48.5779, 16.0154], [48.5763, 15.9407], [48.5853, 15.923], [48.5933, 15.8971], [48.5949, 15.8837], [48.5894, 15.8664], [48.5651, 15.8493], [48.5446, 15.6921], [48.5226, 15.6124], [48.4469, 15.6202], [48.4041, 15.638], [48.3813, 15.6552], [48.3632, 15.6724], [48.3388, 15.7143], [48.3226, 15.7523], [48.3149, 15.7622], [48.3029, 15.7623], [48.2995, 15.7674], [48.2983, 15.7775], [48.2865, 15.7812], [48.2285, 15.8146], [48.1516, 15.8251]]]]}}, {"type": "Feature", "properties": {"GID_2": "YEM.12.8_1", "GID_0": "YEM", "COUNTRY": "Yemen", "GID_1": "YEM.12_1", "NAME_1": "Hadramawt", "NL_NAME_1": "\u062d\u0636\u0631\u0645\u0648\u062a", "NAME_2": "Amd", "VARNAME_2": "NA", "NL_NAME_2": "\u0639\u0645\u062f", "TYPE_2": "Muderiah", "ENGTYPE_2": "District", "CC_2": "1921", "HASC_2": "NA"}, "geometry": {"type": "MultiPolygon", "coordinates": [[[[47.9896, 15.1934], [47.9426, 15.1891], [47.8855, 15.1774], [47.8524, 15.1513], [47.8253, 15.1491], [47.8041, 15.1605], [47.7845, 15.1898], [47.7658, 15.2499], [47.752, 15.2692], [47.74, 15.2826], [47.7143, 15.2946], [47.7232, 15.3231], [47.7478, 15.3629], [47.8353, 15.4194], [47.8739, 15.4778], [47.9175, 15.5339], [47.9256, 15.548], [47.9417, 15.5258], [47.9792, 15.4875], [47.9925, 15.4823], [48.013, 15.477], [48.0208, 15.4716], [48.0435, 15.4672], [48.0607, 15.4725], [48.0722, 15.4792], [48.0906, 15.4707], [48.1285, 15.43], [48.1429, 15.404], [48.132, 15.3747], [48.1144, 15.3403], [48.0783, 15.309], [48.0322, 15.2737], [48.0047, 15.2464], [47.9914, 15.2134], [47.9896, 15.1934]]]]}}, {"type": "Feature", "properties": {"GID_2": "YEM.12.9_1", "GID_0": "YEM", "COUNTRY": "Yemen", "GID_1": "YEM.12_1", "NAME_1": "Hadramawt", "NL_NAME_1": "\u062d\u0636\u0631\u0645\u0648\u062a", "NAME_2": "ArRaydahWaQusayar", "VARNAME_2": "NA", "NL_NAME_2": "\u0627\u0644\u0631\u064a\u062f\u0647\u0648\u0642\u0635\u064a\u0639\u0631", "TYPE_2": "Muderiah", "ENGTYPE_2": "District", "CC_2": "1913", "HASC_2": "NA"}, "geometry": {"type": "MultiPolygon", "coordinates": [[[[50.2468, 15.4688], [50.3378, 15.4485], [50.5395, 15.3718], [50.5704, 15.3667], [50.5901, 15.3329], [50.6213, 15.3421], [50.6384, 15.3417], [50.6619, 15.3211], [50.691, 15.2571], [50.7144, 15.2332], [50.7273, 15.2029], [50.7496, 15.1424], [50.7724, 15.0915], [50.7736, 15.0832], [50.721, 15.0699], [50.7101, 15.0724], [50.7035, 15.0721], [50.6637, 15.0624], [50.619, 15.0571], [50.586, 15.051], [50.5615, 15.0446], [50.5507, 15.0443], [50.4957, 15.0271], [50.4743, 15.0232], [50.4315, 14.9988], [50.4249, 14.9976], [50.4212, 14.9937], [50.4085, 14.9879], [50.3835, 14.9724], [50.3518, 14.9487], [50.3393, 14.9368], [50.3387, 14.9301], [50.3315, 14.9265], [50.329, 14.9176], [50.3265, 14.9179], [50.324, 14.9224], [50.3187, 14.9235], [50.3182, 14.9274], [50.3085, 14.926], [50.2799, 14.9168], [50.2699, 14.911], [50.261, 14.9096], [50.2549, 14.9043], [50.2422, 14.8976], [50.203, 14.9457], [50.1762, 14.973], [50.1567, 15.0168], [50.1505, 15.0436], [50.1205, 15.0809], [50.0698, 15.112], [50.066, 15.1686], [50.0109, 15.2265], [49.9354, 15.2876], [49.8851, 15.3308], [49.8525, 15.3807], [49.8979, 15.3926], [49.9632, 15.3944], [49.9656, 15.3899], [49.9771, 15.3975], [50.0186, 15.4099], [50.0452, 15.443], [50.0899, 15.4487], [50.1323, 15.4589], [50.1671, 15.47], [50.2071, 15.4742], [50.2468, 15.4688]]]]}}, {"type": "Feature", "properties": {"GID_2": "YEM.12.10_1", "GID_0": "YEM", "COUNTRY": "Yemen", "GID_1": "YEM.12_1", "NAME_1": "Hadramawt", "NL_NAME_1": "\u062d\u0636\u0631\u0645\u0648\u062a", "NAME_2": "AsSawm", "VARNAME_2": "NA", "NL_NAME_2": "\u0627\u0644\u0633\u0648\u0645", "TYPE_2": "Muderiah", "ENGTYPE_2": "District", "CC_2": "1912", "HASC_2": "NA"}, "geometry": {"type": "MultiPolygon", "coordinates": [[[[50.1674, 16.1994], [50.1579, 16.1632], [50.1915, 16.129], [50.2254, 16.1082], [50.2556, 16.0775], [50.2517, 16.0576], [50.223, 16.0149], [50.1983, 15.9922], [50.1688, 15.9196], [50.1498, 15.8468], [50.1448, 15.7869], [50.1439, 15.7502], [50.1322, 15.6972], [50.1287, 15.6517], [50.1433, 15.623], [50.1679, 15.6097], [50.2192, 15.5985], [50.2362, 15.5914], [50.2606, 15.5883], [50.2657, 15.5694], [50.2573, 15.5169], [50.2468, 15.4688], [50.2071, 15.4742], [50.1671, 15.47], [50.1323, 15.4589], [50.0899, 15.4487], [50.0452, 15.443], [50.0186, 15.4099], [49.9771, 15.3975], [49.9656, 15.3899], [49.9632, 15.3944], [49.8979, 15.3926], [49.8391, 15.3772], [49.7871, 15.355], [49.7739, 15.3524], [49.7391, 15.3593], [49.6845, 15.3771], [49.6507, 15.4045], [49.6106, 15.4554], [49.5944, 15.4991], [49.5492, 15.5541], [49.5511, 15.5851], [49.5296, 15.7433], [49.5024, 15.7889], [49.4614, 15.8156], [49.4017, 15.8216], [49.2517, 15.8182], [49.2533, 15.8939], [49.2452, 15.9213], [49.271, 15.9597], [49.2881, 16.0004], [49.2674, 16.0644], [49.2351, 16.1325], [49.2381, 16.1397], [49.2236, 16.2009], [49.1702, 16.2583], [49.1099, 16.3289], [49.0983, 16.3516], [49.0858, 16.3681], [49.0722, 16.4095], [49.067, 16.4701], [49.0822, 16.4667], [49.1071, 16.4646], [49.1395, 16.4691], [49.3895, 16.514], [49.515, 16.558], [49.7478, 16.6062], [49.8106, 16.6281], [49.8939, 16.6395], [49.9597, 16.6412], [50.136, 16.6436], [50.2328, 16.6412], [50.2569, 16.6372], [50.2559, 16.6039], [50.2447, 16.5709], [50.2438, 16.5376], [50.2675, 16.5203], [50.2702, 16.4936], [50.2381, 16.4544], [50.2333, 16.4046], [50.2176, 16.335], [50.1771, 16.236], [50.1674, 16.1994]]]]}}, {"type": "Feature", "properties": {"GID_2": "YEM.12.11_1", "GID_0": "YEM", "COUNTRY": "Yemen", "GID_1": "YEM.12_1", "NAME_1": "Hadramawt", "NL_NAME_1": "\u062d\u0636\u0631\u0645\u0648\u062a", "NAME_2": "AshShihr", "VARNAME_2": "NA", "NL_NAME_2": "\u0627\u0644\u0634\u062d\u0631", "TYPE_2": "Muderiah", "ENGTYPE_2": "District", "CC_2": "1915", "HASC_2": "NA"}, "geometry": {"type": "MultiPolygon", "coordinates": [[[[49.8285, 15.2702], [49.8427, 15.2294], [49.8352, 15.1747], [49.8221, 15.1536], [49.8087, 15.1143], [49.8081, 15.0869], [49.8432, 15.0434], [49.8442, 15.019], [49.8391, 14.9308], [49.81, 14.8933], [49.7892, 14.8754], [49.7871, 14.8495], [49.8042, 14.8446], [49.8247, 14.8488], [49.8418, 14.8453], [49.8506, 14.8137], [49.8396, 14.8124], [49.8315, 14.8085], [49.8215, 14.8087], [49.7985, 14.7985], [49.7443, 14.7826], [49.6949, 14.7757], [49.6465, 14.7638], [49.6349, 14.759], [49.6321, 14.7604], [49.6179, 14.756], [49.5924, 14.7474], [49.571, 14.7374], [49.5593, 14.7338], [49.5418, 14.7226], [49.5257, 14.716], [49.5088, 14.7046], [49.4951, 14.6979], [49.4929, 14.6932], [49.4885, 14.6946], [49.4896, 14.6904], [49.4885, 14.6888], [49.4818, 14.6921], [49.4561, 14.6832], [49.4666, 14.7227], [49.4677, 14.7805], [49.4521, 14.836], [49.4114, 14.9042], [49.3789, 14.9559], [49.3268, 14.9815], [49.2759, 14.9824], [49.2534, 15.0973], [49.2593, 15.179], [49.2769, 15.2175], [49.3279, 15.2431], [49.41, 15.2415], [49.5273, 15.2146], [49.8285, 15.2702]]]]}}, {"type": "Feature", "properties": {"GID_2": "YEM.12.12_1", "GID_0": "YEM", "COUNTRY": "Yemen", "GID_1": "YEM.12_1", "NAME_1": "Hadramawt", "NL_NAME_1": "\u062d\u0636\u0631\u0645\u0648\u062a", "NAME_2": "BromMayfa", "VARNAME_2": "NA", "NL_NAME_2": "\u0628\u0631\u0648\u0645\u0645\u064a\u0641\u0639", "TYPE_2": "Muderiah", "ENGTYPE_2": "District", "CC_2": "1925", "HASC_2": "NA"}, "geometry": {"type": "MultiPolygon", "coordinates": [[[[48.9957, 14.4872], [48.9932, 14.4817], [48.9885, 14.4322], [48.9995, 14.411], [49.0032, 14.4082], [48.9938, 14.3865], [48.9918, 14.3857], [48.9876, 14.3774], [48.989, 14.3743], [48.9885, 14.3676], [48.9843, 14.3649], [48.9824, 14.3557], [48.9829, 14.3504], [48.9938, 14.3457], [48.9949, 14.3399], [48.9987, 14.3368], [48.9951, 14.3351], [48.9963, 14.3265], [48.9938, 14.3221], [48.9888, 14.3199], [48.9874, 14.316], [48.9807, 14.3107], [48.9746, 14.3101], [48.9715, 14.3118], [48.9679, 14.3088], [48.9635, 14.3076], [48.959, 14.3101], [48.9487, 14.3085], [48.9465, 14.3051], [48.9435, 14.3046], [48.9415, 14.3001], [48.9376, 14.3001], [48.9368, 14.2982], [48.9326, 14.2968], [48.9346, 14.2932], [48.9301, 14.289], [48.9243, 14.2707], [48.9193, 14.2662], [48.9185, 14.2632], [48.9113, 14.2618], [48.9101, 14.2574], [48.9085, 14.2565], [48.906, 14.2596], [48.9015, 14.2604], [48.8963, 14.2549], [48.8935, 14.2551], [48.8899, 14.2518], [48.8862, 14.2532], [48.8835, 14.2504], [48.8771, 14.2496], [48.8732, 14.2465], [48.8715, 14.2429], [48.8704, 14.2446], [48.8676, 14.2446], [48.8638, 14.2388], [48.8624, 14.2299], [48.8668, 14.2154], [48.8626, 14.2135], [48.8635, 14.211], [48.8618, 14.2071], [48.8565, 14.2057], [48.8554, 14.2024], [48.8521, 14.2001], [48.8501, 14.1935], [48.8435, 14.1862], [48.8429, 14.1832], [48.8374, 14.1796], [48.8343, 14.1729], [48.8293, 14.1685], [48.8293, 14.166], [48.8251, 14.1649], [48.8182, 14.1587], [48.8157, 14.1607], [48.8115, 14.1587], [48.7943, 14.1349], [48.7868, 14.1349], [48.7815, 14.1321], [48.7779, 14.1321], [48.7713, 14.1288], [48.764, 14.1196], [48.7546, 14.1154], [48.7501, 14.1079], [48.7465, 14.1051], [48.7393, 14.0913], [48.734, 14.0862], [48.7324, 14.0821], [48.7304, 14.0818], [48.7296, 14.079], [48.7182, 14.0676], [48.7113, 14.0632], [48.7101, 14.0601], [48.6993, 14.0538], [48.6963, 14.0501], [48.6843, 14.0465], [48.6826, 14.0482], [48.6818, 14.0546], [48.6801, 14.046], [48.6746, 14.0471], [48.6679, 14.0446], [48.6074, 14.0482], [48.578, 14.0474], [48.5456, 14.1203], [48.498, 14.1633], [48.4511, 14.1944], [48.4485, 14.2162], [48.45, 14.2164], [48.4491, 14.2397], [48.5186, 14.328], [48.5549, 14.3858], [48.5721, 14.4395], [48.6424, 14.635], [48.6813, 14.6508], [48.7272, 14.6544], [48.7728, 14.6167], [48.8169, 14.5644], [48.8327, 14.535], [48.8539, 14.5138], [48.8686, 14.5115], [48.8745, 14.5144], [48.878, 14.5132], [48.9215, 14.5385], [48.9498, 14.5244], [48.9704, 14.5079], [48.9733, 14.4974], [48.9957, 14.4872]]]]}}, {"type": "Feature", "properties": {"GID_2": "YEM.12.13_1", "GID_0": "YEM", "COUNTRY": "Yemen", "GID_1": "YEM.12_1", "NAME_1": "Hadramawt", "NL_NAME_1": "\u062d\u0636\u0631\u0645\u0648\u062a", "NAME_2": "Daw'an", "VARNAME_2": "NA", "NL_NAME_2": "\u062f\u0648\u0639\u0646", "TYPE_2": "Muderiah", "ENGTYPE_2": "District", "CC_2": "1918", "HASC_2": "NA"}, "geometry": {"type": "MultiPolygon", "coordinates": [[[[48.0942, 14.7333], [48.0947, 14.77], [48.1084, 14.7904], [48.1549, 14.8122], [48.1801, 14.8194], [48.2015, 14.8359], [48.2192, 14.8656], [48.2264, 14.8834], [48.2355, 14.9482], [48.2076, 15.0016], [48.1768, 15.0352], [48.137, 15.0413], [48.1329, 15.0538], [48.132, 15.087], [48.1278, 15.094], [48.1365, 15.1008], [48.128, 15.1078], [48.0998, 15.1234], [48.0884, 15.1235], [48.084, 15.1125], [48.0752, 15.0988], [48.0682, 15.1058], [48.0656, 15.1252], [48.0549, 15.1696], [48.0366, 15.1865], [47.9896, 15.1934], [47.9914, 15.2134], [48.0047, 15.2464], [48.0322, 15.2737], [48.0783, 15.309], [48.1144, 15.3403], [48.132, 15.3747], [48.1411, 15.3991], [48.2068, 15.3981], [48.2866, 15.4092], [48.3812, 15.4274], [48.4392, 15.3573], [48.4923, 15.2825], [48.5261, 15.2229], [48.5582, 15.1803], [48.6247, 15.0757], [48.608, 15.0463], [48.5812, 14.9836], [48.583, 14.9044], [48.5733, 14.8268], [48.5306, 14.7475], [48.4854, 14.7431], [48.355, 14.6864], [48.33, 14.6843], [48.2664, 14.674], [48.2376, 14.6744], [48.159, 14.6942], [48.0942, 14.7333]]]]}}, {"type": "Feature", "properties": {"GID_2": "YEM.12.14_1", "GID_0": "YEM", "COUNTRY": "Yemen", "GID_1": "YEM.12_1", "NAME_1": "Hadramawt", "NL_NAME_1": "\u062d\u0636\u0631\u0645\u0648\u062a", "NAME_2": "GhaylBaWazir", "VARNAME_2": "NA", "NL_NAME_2": "\u063a\u064a\u0644\u0628\u0627\u0648\u0632\u064a\u0631", "TYPE_2": "Muderiah", "ENGTYPE_2": "District", "CC_2": "1917", "HASC_2": "NA"}, "geometry": {"type": "MultiPolygon", "coordinates": [[[[49.3939, 14.6568], [49.3828, 14.6738], [49.3628, 14.6742], [49.3048, 14.6673], [49.3018, 14.6753], [49.2315, 14.7207], [49.1803, 14.7332], [49.1498, 14.7538], [49.0435, 14.7557], [48.9893, 14.79], [48.8355, 14.8226], [48.8049, 14.8398], [48.7475, 14.8501], [48.7295, 14.8632], [48.7154, 14.8961], [48.697, 14.9312], [48.6652, 14.9451], [48.6641, 14.9442], [48.6345, 14.9629], [48.5815, 14.9711], [48.5812, 14.9836], [48.608, 15.0463], [48.6259, 15.0777], [48.7128, 15.0784], [48.7424, 15.104], [48.8176, 15.0846], [48.9012, 15.0546], [49.039, 14.999], [49.1254, 14.9576], [49.1574, 14.9739], [49.2089, 14.9729], [49.2759, 14.9824], [49.3268, 14.9815], [49.3789, 14.9559], [49.4521, 14.836], [49.4677, 14.7805], [49.4666, 14.7227], [49.4561, 14.6832], [49.4313, 14.6726], [49.4185, 14.6651], [49.3939, 14.6568]]]]}}, {"type": "Feature", "properties": {"GID_2": "YEM.12.15_1", "GID_0": "YEM", "COUNTRY": "Yemen", "GID_1": "YEM.12_1", "NAME_1": "Hadramawt", "NL_NAME_1": "\u062d\u0636\u0631\u0645\u0648\u062a", "NAME_2": "GhaylBinYamin", "VARNAME_2": "NA", "NL_NAME_2": "\u063a\u064a\u0644\u0628\u0646\u064a\u0645\u064a\u0646", "TYPE_2": "Muderiah", "ENGTYPE_2": "District", "CC_2": "1916", "HASC_2": "NA"}, "geometry": {"type": "MultiPolygon", "coordinates": [[[[49.7954, 15.3585], [49.8285, 15.2702], [49.5273, 15.2146], [49.41, 15.2415], [49.3279, 15.2431], [49.2769, 15.2175], [49.2593, 15.179], [49.2534, 15.0973], [49.2759, 14.9824], [49.2089, 14.9729], [49.1574, 14.9739], [49.1254, 14.9576], [49.039, 14.999], [48.9012, 15.0546], [48.8176, 15.0846], [48.7424, 15.104], [48.7639, 15.143], [48.765, 15.2042], [48.7573, 15.2198], [48.8709, 15.2626], [48.9127, 15.292], [48.9853, 15.314], [49.0374, 15.3398], [49.0858, 15.3556], [49.1208, 15.385], [49.1421, 15.4213], [49.1482, 15.4441], [49.1581, 15.4668], [49.1592, 15.5217], [49.1532, 15.5722], [49.1398, 15.6057], [49.129, 15.6619], [49.2061, 15.7064], [49.2167, 15.7527], [49.2517, 15.8182], [49.4017, 15.8216], [49.4614, 15.8156], [49.5024, 15.7889], [49.5296, 15.7433], [49.5511, 15.5851], [49.5492, 15.5541], [49.5944, 15.4991], [49.6106, 15.4554], [49.6507, 15.4045], [49.6845, 15.3771], [49.7391, 15.3593], [49.7739, 15.3524], [49.7871, 15.355], [49.7954, 15.3585]]]]}}, {"type": "Feature", "properties": {"GID_2": "YEM.12.16_1", "GID_0": "YEM", "COUNTRY": "Yemen", "GID_1": "YEM.12_1", "NAME_1": "Hadramawt", "NL_NAME_1": "\u062d\u0636\u0631\u0645\u0648\u062a", "NAME_2": "HagrAsSai'ar", "VARNAME_2": "NA", "NL_NAME_2": "\u062d\u062c\u0631\u0627\u0644\u0635\u064a\u0639\u0631", "TYPE_2": "Muderiah", "ENGTYPE_2": "District", "CC_2": "1905", "HASC_2": "NA"}, "geometry": {"type": "MultiPolygon", "coordinates": [[[[47.8344, 15.9826], [47.6739, 16.0194], [47.557, 16.1289], [47.5417, 16.201], [47.5817, 16.2622], [47.8111, 16.3507], [47.9101, 16.3934], [47.9685, 16.4482], [48.03, 16.5377], [48.1467, 16.6286], [48.2865, 16.4678], [48.3421, 16.3916], [48.3656, 16.3351], [48.3442, 16.2341], [48.2285, 16.2216], [48.0526, 16.1592], [47.8897, 16.0574], [47.838, 15.9967], [47.8344, 15.9826]]]]}}, {"type": "Feature", "properties": {"GID_2": "YEM.12.17_1", "GID_0": "YEM", "COUNTRY": "Yemen", "GID_1": "YEM.12_1", "NAME_1": "Hadramawt", "NL_NAME_1": "\u062d\u0636\u0631\u0645\u0648\u062a", "NAME_2": "Hajr", "VARNAME_2": "NA", "NL_NAME_2": "\u062d\u062c\u0631", "TYPE_2": "Muderiah", "ENGTYPE_2": "District", "CC_2": "1924", "HASC_2": "NA"}, "geometry": {"type": "MultiPolygon", "coordinates": [[[[48.0335, 14.7461], [48.0942, 14.7333], [48.159, 14.6942], [48.2376, 14.6744], [48.2664, 14.674], [48.33, 14.6843], [48.355, 14.6864], [48.4854, 14.7431], [48.5306, 14.7475], [48.6293, 14.6519], [48.6424, 14.635], [48.5721, 14.4395], [48.5549, 14.3858], [48.5186, 14.328], [48.4491, 14.2397], [48.45, 14.2164], [48.404, 14.2112], [48.335, 14.194], [48.2218, 14.2064], [48.117, 14.2539], [48.0989, 14.3259], [47.981, 14.4127], [47.9332, 14.455], [47.9123, 14.4817], [47.9682, 14.5688], [48.0104, 14.6626], [48.0243, 14.6878], [48.0335, 14.7461]]]]}}, {"type": "Feature", "properties": {"GID_2": "YEM.12.19_1", "GID_0": "YEM", "COUNTRY": "Yemen", "GID_1": "YEM.12_1", "NAME_1": "Hadramawt", "NL_NAME_1": "\u062d\u0636\u0631\u0645\u0648\u062a", "NAME_2": "Huraidhah", "VARNAME_2": "NA", "NL_NAME_2": "\u062d\u0631\u064a\u0636\u0647", "TYPE_2": "Muderiah", "ENGTYPE_2": "District", "CC_2": "1928", "HASC_2": "NA"}, "geometry": {"type": "MultiPolygon", "coordinates": [[[[48.1411, 15.3991], [48.1429, 15.404], [48.1285, 15.43], [48.0906, 15.4707], [48.0722, 15.4792], [48.0607, 15.4725], [48.0435, 15.4672], [48.0208, 15.4716], [48.013, 15.477], [47.9925, 15.4823], [47.9792, 15.4875], [47.9417, 15.5258], [47.9256, 15.548], [47.9438, 15.5797], [48.0146, 15.6187], [48.0415, 15.6443], [48.0779, 15.6519], [48.1099, 15.6686], [48.1342, 15.6783], [48.1421, 15.6743], [48.1803, 15.6932], [48.2082, 15.6967], [48.2426, 15.6711], [48.2561, 15.6439], [48.2558, 15.6223], [48.2638, 15.6006], [48.2944, 15.5947], [48.3158, 15.5946], [48.3323, 15.5789], [48.3524, 15.5315], [48.3688, 15.5029], [48.38, 15.4726], [48.3812, 15.4274], [48.2866, 15.4092], [48.2068, 15.3981], [48.1411, 15.3991]]]]}}, {"type": "Feature", "properties": {"GID_2": "YEM.12.21_1", "GID_0": "YEM", "COUNTRY": "Yemen", "GID_1": "YEM.12_1", "NAME_1": "Hadramawt", "NL_NAME_1": "\u062d\u0636\u0631\u0645\u0648\u062a", "NAME_2": "Rakhyah", "VARNAME_2": "NA", "NL_NAME_2": "\u0631\u062e\u064a\u0647", "TYPE_2": "Muderiah", "ENGTYPE_2": "District", "CC_2": "1920", "HASC_2": "NA"}, "geometry": {"type": "MultiPolygon", "coordinates": [[[[47.7143, 15.2946], [47.6931, 15.2734], [47.6854, 15.2621], [47.6537, 15.2322], [47.6318, 15.214], [47.6114, 15.2116], [47.598, 15.2315], [47.5983, 15.2513], [47.6067, 15.2749], [47.624, 15.3425], [47.6213, 15.3674], [47.6376, 15.4046], [47.7216, 15.4977], [47.7752, 15.5634], [47.8203, 15.6278], [47.869, 15.712], [47.9303, 15.6647], [47.9475, 15.5822], [47.9438, 15.5797], [47.9175, 15.5339], [47.8739, 15.4778], [47.8353, 15.4194], [47.7478, 15.3629], [47.7232, 15.3231], [47.7143, 15.2946]]]]}}, {"type": "Feature", "properties": {"GID_2": "YEM.12.22_1", "GID_0": "YEM", "COUNTRY": "Yemen", "GID_1": "YEM.12_1", "NAME_1": "Hadramawt", "NL_NAME_1": "\u062d\u0636\u0631\u0645\u0648\u062a", "NAME_2": "Rumah", "VARNAME_2": "NA", "NL_NAME_2": "\u0631\u0645\u0627\u0647", "TYPE_2": "Muderiah", "ENGTYPE_2": "District", "CC_2": "1901", "HASC_2": "NA"}, "geometry": {"type": "MultiPolygon", "coordinates": [[[[49.1843, 18.6237], [50.7833, 18.7889], [52.0, 19.0], [51.9103, 18.9078], [51.677, 18.6149], [51.5952, 18.4067], [51.5003, 18.2715], [51.4946, 18.2435], [51.4741, 17.8997], [51.4474, 17.8108], [51.37, 17.6111], [51.3192, 17.5004], [51.2193, 17.3163], [51.098, 17.1851], [51.0601, 17.1131], [50.9643, 17.0812], [50.8695, 17.0352], [50.7795, 16.9711], [50.7115, 16.9268], [50.6731, 16.892], [50.6498, 16.8259], [50.608, 16.7629], [50.5297, 16.7265], [50.3852, 16.7047], [50.3096, 16.6681], [50.2897, 16.6449], [50.2701, 16.6398], [50.2566, 16.629], [50.2569, 16.6372], [50.2328, 16.6412], [50.1519, 16.6432], [50.1568, 16.6947], [50.2069, 16.7976], [50.2448, 16.9463], [50.258, 17.4146], [50.2993, 17.6673], [50.325, 17.8488], [50.3234, 18.2458], [50.2907, 18.7357], [49.1843, 18.6237]]]]}}, {"type": "Feature", "properties": {"GID_2": "YEM.12.23_1", "GID_0": "YEM", "COUNTRY": "Yemen", "GID_1": "YEM.12_1", "NAME_1": "Hadramawt", "NL_NAME_1": "\u062d\u0636\u0631\u0645\u0648\u062a", "NAME_2": "Sah", "VARNAME_2": "NA", "NL_NAME_2": "\u0633\u0627\u0647", "TYPE_2": "Muderiah", "ENGTYPE_2": "District", "CC_2": "1909", "HASC_2": "NA"}, "geometry": {"type": "MultiPolygon", "coordinates": [[[[49.129, 15.6619], [49.1398, 15.6057], [49.1532, 15.5722], [49.1592, 15.5217], [49.1581, 15.4668], [49.1482, 15.4441], [49.1421, 15.4213], [49.1208, 15.385], [49.0858, 15.3556], [49.0374, 15.3398], [48.9853, 15.314], [48.9127, 15.292], [48.8709, 15.2626], [48.7573, 15.2198], [48.7377, 15.2596], [48.6932, 15.3257], [48.6487, 15.5144], [48.6317, 15.5429], [48.6411, 15.5698], [48.6638, 15.612], [48.7062, 15.6691], [48.7517, 15.6909], [48.7728, 15.707], [48.7825, 15.7235], [48.7843, 15.7375], [48.7962, 15.7845], [48.8346, 15.8181], [48.8805, 15.8486], [48.931, 15.8121], [48.9776, 15.7746], [49.0476, 15.7118], [49.129, 15.6619]]]]}}, {"type": "Feature", "properties": {"GID_2": "YEM.12.24_1", "GID_0": "YEM", "COUNTRY": "Yemen", "GID_1": "YEM.12_1", "NAME_1": "Hadramawt", "NL_NAME_1": "\u062d\u0636\u0631\u0645\u0648\u062a", "NAME_2": "Sayun", "VARNAME_2": "NA", "NL_NAME_2": "\u0633\u064a\u0626\u0648\u0646", "TYPE_2": "Muderiah", "ENGTYPE_2": "District", "CC_2": "1910", "HASC_2": "NA"}, "geometry": {"type": "MultiPolygon", "coordinates": [[[[48.6886, 16.1977], [48.7404, 16.2162], [48.7579, 16.2288], [48.7577, 16.2141], [48.7819, 16.1285], [48.8072, 16.1092], [48.8418, 16.066], [48.8548, 16.0445], [48.8858, 16.048], [48.9446, 16.0152], [48.9674, 16.0054], [48.9744, 15.9912], [48.9739, 15.9678], [48.9649, 15.9422], [48.9534, 15.9314], [48.9487, 15.9188], [48.9205, 15.8859], [48.8894, 15.8738], [48.8805, 15.8486], [48.8346, 15.8181], [48.7962, 15.7845], [48.7843, 15.7375], [48.746, 15.7722], [48.728, 15.794], [48.721, 15.878], [48.6943, 15.9165], [48.6933, 15.9283], [48.7031, 15.9386], [48.7082, 15.9526], [48.7166, 16.0375], [48.7183, 16.1049], [48.7105, 16.1664], [48.6886, 16.1977]]]]}}, {"type": "Feature", "properties": {"GID_2": "YEM.12.25_1", "GID_0": "YEM", "COUNTRY": "Yemen", "GID_1": "YEM.12_1", "NAME_1": "Hadramawt", "NL_NAME_1": "\u062d\u0636\u0631\u0645\u0648\u062a", "NAME_2": "Shibam", "VARNAME_2": "NA", "NL_NAME_2": "\u0634\u0628\u0627\u0645", "TYPE_2": "Muderiah", "ENGTYPE_2": "District", "CC_2": "1908", "HASC_2": "NA"}, "geometry": {"type": "MultiPolygon", "coordinates": [[[[48.5692, 16.1772], [48.6604, 16.1876], [48.6886, 16.1977], [48.7105, 16.1664], [48.7183, 16.1049], [48.7166, 16.0375], [48.7082, 15.9526], [48.7031, 15.9386], [48.6933, 15.9283], [48.6943, 15.9165], [48.721, 15.878], [48.728, 15.794], [48.746, 15.7722], [48.7843, 15.7375], [48.7825, 15.7235], [48.7728, 15.707], [48.7517, 15.6909], [48.7062, 15.6691], [48.6638, 15.612], [48.6411, 15.5698], [48.6317, 15.5429], [48.5328, 15.5989], [48.5226, 15.6124], [48.5446, 15.6921], [48.5651, 15.8493], [48.5894, 15.8664], [48.5949, 15.8837], [48.5933, 15.8971], [48.5853, 15.923], [48.5763, 15.9407], [48.5779, 16.0154], [48.5731, 16.1323], [48.5692, 16.1772]]]]}}, {"type": "Feature", "properties": {"GID_2": "YEM.12.26_1", "GID_0": "YEM", "COUNTRY": "Yemen", "GID_1": "YEM.12_1", "NAME_1": "Hadramawt", "NL_NAME_1": "\u062d\u0636\u0631\u0645\u0648\u062a", "NAME_2": "Tarim", "VARNAME_2": "NA", "NL_NAME_2": "\u062a\u0631\u064a\u0645", "TYPE_2": "Muderiah", "ENGTYPE_2": "District", "CC_2": "1911", "HASC_2": "NA"}, "geometry": {"type": "MultiPolygon", "coordinates": [[[[48.7579, 16.2288], [48.7586, 16.2626], [48.8006, 16.2886], [48.8564, 16.3143], [48.8849, 16.3605], [48.9531, 16.4366], [49.0209, 16.4637], [49.0477, 16.4689], [49.067, 16.4701], [49.0722, 16.4095], [49.0858, 16.3681], [49.0983, 16.3516], [49.1099, 16.3289], [49.1702, 16.2583], [49.2236, 16.2009], [49.2381, 16.1397], [49.2351, 16.1325], [49.2674, 16.0644], [49.2881, 16.0004], [49.271, 15.9597], [49.2452, 15.9213], [49.2533, 15.8939], [49.2517, 15.8182], [49.2167, 15.7527], [49.2061, 15.7064], [49.129, 15.6619], [49.0476, 15.7118], [48.9776, 15.7746], [48.931, 15.8121], [48.8805, 15.8486], [48.8894, 15.8738], [48.9205, 15.8859], [48.9487, 15.9188], [48.9534, 15.9314], [48.9649, 15.9422], [48.9739, 15.9678], [48.9744, 15.9912], [48.9674, 16.0054], [48.9446, 16.0152], [48.8858, 16.048], [48.8548, 16.0445], [48.8418, 16.066], [48.8072, 16.1092], [48.7819, 16.1285], [48.7577, 16.2141], [48.7579, 16.2288]]]]}}, {"type": "Feature", "properties": {"GID_2": "YEM.12.27_1", "GID_0": "YEM", "COUNTRY": "Yemen", "GID_1": "YEM.12_1", "NAME_1": "Hadramawt", "NL_NAME_1": "\u062d\u0636\u0631\u0645\u0648\u062a", "NAME_2": "Thamud", "VARNAME_2": "NA", "NL_NAME_2": "\u062b\u0645\u0648\u062f", "TYPE_2": "Muderiah", "ENGTYPE_2": "District", "CC_2": "1902", "HASC_2": "NA"}, "geometry": {"type": "MultiPolygon", "coordinates": [[[[49.1472, 16.4705], [49.2206, 16.552], [49.4098, 16.8023], [49.5517, 16.9761], [49.5776, 17.0971], [49.5831, 17.318], [49.6428, 17.4051], [49.6762, 17.424], [49.7056, 17.6168], [49.7258, 18.3667], [49.7253, 18.3994], [49.7343, 18.6803], [50.2907, 18.7357], [50.3234, 18.2458], [50.325, 17.8488], [50.2993, 17.6673], [50.258, 17.4146], [50.2448, 16.9463], [50.2069, 16.7976], [50.1568, 16.6947], [50.1519, 16.6432], [49.8939, 16.6395], [49.8106, 16.6281], [49.7478, 16.6062], [49.515, 16.558], [49.3895, 16.514], [49.1472, 16.4705]]]]}}, {"type": "Feature", "properties": {"GID_2": "YEM.12.28_1", "GID_0": "YEM", "COUNTRY": "Yemen", "GID_1": "YEM.12_1", "NAME_1": "Hadramawt", "NL_NAME_1": "\u062d\u0636\u0631\u0645\u0648\u062a", "NAME_2": "WadiAlAyn", "VARNAME_2": "NA", "NL_NAME_2": "\u0648\u0627\u062f\u064a\u0627\u0644\u0639\u064a\u0646\u0648\u062d\u0648\u0631\u0647", "TYPE_2": "Muderiah", "ENGTYPE_2": "District", "CC_2": "1919", "HASC_2": "NA"}, "geometry": {"type": "MultiPolygon", "coordinates": [[[[47.8689, 15.712], [47.9324, 15.7385], [48.0029, 15.7706], [48.0464, 15.7874], [48.0984, 15.7859], [48.1262, 15.7986], [48.1516, 15.8251], [48.2285, 15.8146], [48.2865, 15.7812], [48.2983, 15.7775], [48.2995, 15.7674], [48.3029, 15.7623], [48.3149, 15.7622], [48.3226, 15.7523], [48.3388, 15.7143], [48.3632, 15.6724], [48.3813, 15.6552], [48.4041, 15.638], [48.4469, 15.6202], [48.5226, 15.6124], [48.5328, 15.5989], [48.6317, 15.5429], [48.6487, 15.5144], [48.6932, 15.3257], [48.7377, 15.2596], [48.765, 15.2042], [48.7639, 15.143], [48.7424, 15.104], [48.7128, 15.0784], [48.6259, 15.0777], [48.6247, 15.0757], [48.5582, 15.1803], [48.5261, 15.2229], [48.4923, 15.2825], [48.4392, 15.3573], [48.3812, 15.4274], [48.38, 15.4726], [48.3688, 15.5029], [48.3524, 15.5315], [48.3323, 15.5789], [48.3158, 15.5946], [48.2944, 15.5947], [48.2638, 15.6006], [48.2558, 15.6223], [48.2561, 15.6439], [48.2426, 15.6711], [48.2082, 15.6967], [48.1803, 15.6932], [48.1421, 15.6743], [48.1342, 15.6783], [48.1099, 15.6686], [48.0779, 15.6519], [48.0415, 15.6443], [48.0146, 15.6187], [47.9475, 15.5822], [47.9303, 15.6647], [47.8689, 15.712]]]]}}, {"type": "Feature", "properties": {"GID_2": "YEM.12.29_1", "GID_0": "YEM", "COUNTRY": "Yemen", "GID_1": "YEM.12_1", "NAME_1": "Hadramawt", "NL_NAME_1": "\u062d\u0636\u0631\u0645\u0648\u062a", "NAME_2": "Yabuth", "VARNAME_2": "NA", "NL_NAME_2": "\u064a\u0628\u0639\u062b", "TYPE_2": "Muderiah", "ENGTYPE_2": "District", "CC_2": "1923", "HASC_2": "NA"}, "geometry": {"type": "MultiPolygon", "coordinates": [[[[47.621, 14.9548], [47.7066, 14.8891], [47.7561, 14.8594], [47.7827, 14.8533], [47.8529, 14.8108], [47.986, 14.7562], [48.0335, 14.7461], [48.0243, 14.6878], [48.0104, 14.6626], [47.9682, 14.5688], [47.9123, 14.4817], [47.7953, 14.5171], [47.5854, 14.6315], [47.5878, 14.6371], [47.5941, 14.6768], [47.5676, 14.7151], [47.5216, 14.77], [47.4717, 14.8069], [47.4381, 14.8352], [47.4518, 14.8633], [47.4764, 14.8903], [47.5383, 14.9186], [47.5652, 14.9332], [47.621, 14.9548]]]]}}, {"type": "Feature", "properties": {"GID_2": "YEM.12.30_1", "GID_0": "YEM", "COUNTRY": "Yemen", "GID_1": "YEM.12_1", "NAME_1": "Hadramawt", "NL_NAME_1": "\u062d\u0636\u0631\u0645\u0648\u062a", "NAME_2": "ZamakhwaManwakh", "VARNAME_2": "NA", "NL_NAME_2": "\u0632\u0645\u0648\u062e\u0648\u0645\u0646\u0648\u062e", "TYPE_2": "Muderiah", "ENGTYPE_2": "District", "CC_2": "1904", "HASC_2": "NA"}, "geometry": {"type": "MultiPolygon", "coordinates": [[[[47.0, 16.95], [47.1833, 16.95], [47.4667, 17.1167], [47.6, 17.45], [48.1833, 18.1667], [48.5957, 18.3651], [48.5658, 17.1799], [48.556, 17.1739], [48.5177, 17.0696], [48.4451, 16.918], [48.2901, 16.7214], [48.1467, 16.6286], [48.03, 16.5377], [47.9685, 16.4482], [47.9101, 16.3934], [47.8111, 16.3507], [47.5817, 16.2622], [47.5435, 16.2036], [47.4863, 16.2122], [47.3662, 16.2211], [47.2789, 16.2146], [47.2146, 16.1909], [47.1756, 16.1651], [47.1243, 16.085], [47.0513, 16.0399], [46.9483, 16.1071], [46.9483, 16.109], [46.8108, 16.1619], [46.9971, 16.3699], [47.0, 16.95]]]]}}]}